{
    "links": {
        "self": "http://www.neowsapp.com/rest/v1/neo/3841760?api_key=iIulBulltgU6a56xZRHN4H3l9WmuAYTsLGpBGhQ2"
    },
    "id": "3841760",
    "neo_reference_id": "3841760",
    "name": "(2019 JX2)",
    "designation": "2019 JX2",
    "nasa_jpl_url": "http://ssd.jpl.nasa.gov/sbdb.cgi?sstr=3841760",
    "absolute_magnitude_h": 24.6,
    "estimated_diameter": {
        "kilometers": {
            "estimated_diameter_min": 0.0319561887,
            "estimated_diameter_max": 0.0714562102
        },
        "meters": {
            "estimated_diameter_min": 31.9561886721,
            "estimated_diameter_max": 71.4562101727
        },
        "miles": {
            "estimated_diameter_min": 0.0198566489,
            "estimated_diameter_max": 0.0444008168
        },
        "feet": {
            "estimated_diameter_min": 104.8431420431,
            "estimated_diameter_max": 234.436392583
        }
    },
    "is_potentially_hazardous_asteroid": false,
    "close_approach_data": [
        {
            "close_approach_date": "2019-06-06",
            "close_approach_date_full": "2019-Jun-06 08:05",
            "epoch_date_close_approach": 1559808300000,
            "relative_velocity": {
                "kilometers_per_second": "6.9698199802",
                "kilometers_per_hour": "25091.351928789",
                "miles_per_hour": "15590.7903137523"
            },
            "miss_distance": {
                "astronomical": "0.0352586853",
                "lunar": "13.7156285817",
                "kilometers": "5274624.219880311",
                "miles": "3277499.5105618518"
            },
            "orbiting_body": "Earth"
        },
        {
            "close_approach_date": "2024-08-17",
            "close_approach_date_full": "2024-Aug-17 03:44",
            "epoch_date_close_approach": 1723866240000,
            "relative_velocity": {
                "kilometers_per_second": "19.0867018832",
                "kilometers_per_hour": "68712.1267793418",
                "miles_per_hour": "42695.0434424194"
            },
            "miss_distance": {
                "astronomical": "0.4479503042",
                "lunar": "174.2526683338",
                "kilometers": "67012411.374172054",
                "miles": "41639581.5748561852"
            },
            "orbiting_body": "Earth"
        }
    ],
    "orbital_data": {
        "orbit_id": "9",
        "orbit_determination_date": "2019-06-03 06:43:28",
        "first_observation_date": "2019-05-06",
        "last_observation_date": "2019-06-01",
        "data_arc_in_days": 26,
        "observations_used": 52,
        "orbit_uncertainty": "7",
        "minimum_orbit_intersection": ".0307927",
        "jupiter_tisserand_invariant": "3.860",
        "epoch_osculation": "2459000.5",
        "eccentricity": ".4442023485499697",
        "semi_major_axis": "1.863633209181276",
        "inclination": "4.951688984871697",
        "ascending_node_longitude": "68.9093868842622",
        "orbital_period": "929.2639471514268",
        "perihelion_distance": "1.035802960827237",
        "perihelion_argument": "201.3222222917214",
        "aphelion_distance": "2.691463457535316",
        "perihelion_time": "2458653.688111118575",
        "mean_anomaly": "134.3561002017093",
        "mean_motion": ".3874033864151804",
        "equinox": "J2000",
        "orbit_class": {
            "orbit_class_type": "AMO",
            "orbit_class_description": "Near-Earth asteroid orbits similar to that of 1221 Amor",
            "orbit_class_range": "1.017 AU < q (perihelion) < 1.3 AU"
        }
    },
    "is_sentry_object": false
}